#aV2022  3 26  0  0  0.00000000     288 DD+AD WGS84 FIT  NGA
## 2202 518400.00000000   300.00000000 59664 0.0000000000000
+   32     1  2  3  4  5  6  7  8  9 10 11 12 13 14 15 16 17
+         18 19 20 21 22 23 24 25 26 27 28 29 30 31 32  0  0
+          0  0  0  0  0  0  0  0  0  0  0  0  0  0  0  0  0
+          0  0  0  0  0  0  0  0  0  0  0  0  0  0  0  0  0
+          0  0  0  0  0  0  0  0  0  0  0  0  0  0  0  0  0
++         2  2  2  2  2  2  2  2  2  2  2  2  2  2  2  2  2
++         2  2  2  2  2  2  2  2  2  2  2  2  2  2  2  0  0
++         0  0  0  0  0  0  0  0  0  0  0  0  0  0  0  0  0
++         0  0  0  0  0  0  0  0  0  0  0  0  0  0  0  0  0
++         0  0  0  0  0  0  0  0  0  0  0  0  0  0  0  0  0
%c cc cc ccc ccc cccc cccc cccc cccc ccccc ccccc ccccc ccccc
%c cc cc ccc ccc cccc cccc cccc cccc ccccc ccccc ccccc ccccc
%f  0.0000000  0.000000000  0.00000000000  0.000000000000000
%f  0.0000000  0.000000000  0.00000000000  0.000000000000000
%i    0    0    0    0      0      0      0      0         0
%i    0    0    0    0      0      0      0      0         0
/*      NGA, ST. LOUIS,MO.                                  
/*   EPHEMERIS COMPUTED FROM 2 DAYS OF DATA                 
/*   EPOCHA v7 SMOOTHER                                     
/*   G2139 IERS2010 SATIGS SATAPC                           
*  2022  3 26  7 15  0.00000000
P  1 -13165.281941  16596.398272  15507.263484    399.957824                    
V  1   1678.078257 -20307.552024  23079.808567     -0.089902                    
P  2  14149.386491   5823.220449 -21038.231200   -652.646718                    
V  2  -2775.401522  28149.590979   5883.519019     -0.003581                    
P  3 -22108.917626  13208.704394  -6351.809761   -179.964988                    
V  3  -8280.279926    620.935026  30717.678501     -0.162735                    
P  4 -13907.688834   7638.565406 -21303.218024   -180.911156                    
V  4 -20127.064974 -18086.134271   6569.513921      0.028131                    
P  5  24769.817240  -3746.863726  -9211.332112    -76.013588                    
V  5  -9504.499991   6793.856801 -28677.166435     -0.013505                    
P  6   6454.943880  21093.855734 -14667.794953    244.194887                    
V  6  -4490.282361  18244.728579  24226.939046      0.130824                    
P  7  -5120.666543  25723.801698  -1367.349612    317.813123                    
V  7  -3173.506031  -2766.671278 -31803.062565      0.016687                    
P  8 -20711.228770  -1307.349454  16744.099717    -61.348839                    
V  8 -15830.036464 -14148.977118 -20297.253959     -0.015565                    
P  9  -3115.304200  16252.580756 -20833.867608   -347.645792                    
V  9 -21349.088084 -15440.068105  -8911.893574      0.022008                    
P 10  -3989.084977 -14539.658675  21999.666238   -358.530053                    
V 10  25770.473072  -9777.259595  -2084.631008     -0.119202                    
P 11  13826.507595   7108.430474 -21541.315267    -53.363560                    
V 11  -6085.685201  26651.024184   4876.271646      0.086007                    
P 12  24323.445674  -9984.347159  -3488.671847   -190.599496                    
V 12   4694.149550   1272.706720  31625.899554     -0.057795                    
P 13  21280.246974  10640.879078  11824.638430    283.194715                    
V 13   8933.640681  12444.220419 -26768.873310      0.064015                    
P 14   2364.506082  15360.236634  21527.511250    -97.330249                    
V 14 -26017.229703   8546.640928  -3315.329667     -0.033657                    
P 15  20663.129404  -1617.904852  16374.709093    -73.895249                    
V 15  17125.448314  13255.868923 -19495.083842      0.029202                    
P 16 -23687.644137  -2157.837051 -12558.308198   -484.885373                    
V 16  14266.317204  -5852.864873 -26026.880840     -0.041804                    
P 17  11083.980960  21100.782420  12096.849717    592.143816                    
V 17 -12045.625580  -8571.456040  27002.101840      0.049216                    
P 18   5877.777390 -25769.149550  -1958.863607    211.045986                    
V 18   2102.972935   2893.047047 -31923.664339     -0.090164                    
P 19  16476.042274  20474.252400   4243.789317    135.964731                    
V 19  -5495.987885  -2530.421593  31414.024632      0.049893                    
P 20  20325.197464   2342.513606 -16804.175248    516.135672                    
V 20 -17457.608388  12742.911374 -19572.600277     -0.001855                    
P 21 -15464.478365   5374.917681  21453.718923    159.814586                    
V 21   1007.597044 -25860.631183   8090.902641      0.003996                    
P 22 -18055.769524 -19510.359131   2432.292852    233.332158                    
V 22   3662.188431   -107.213930  31457.297986      0.058918                    
P 23   8393.256583 -17226.585597  18340.974793     -9.922321                    
V 23  22075.546438  -7671.866697 -17392.876983     -0.030873                    
P 24  14240.304589 -12842.835328  17907.802644    264.285425                    
V 24    455.592576  23679.174045  16759.004295     -0.040848                    
P 25  14992.780458 -16710.385799 -14259.027824    303.421228                    
V 25  17358.320345  -4339.894526  24092.611584      0.051112                    
P 26 -15417.590690  -9011.470610 -19835.260015    193.750095                    
V 26  22298.990641 -11354.330083 -11917.190797      0.029346                    
P 27 -22788.814188 -11661.643727   7608.721315    165.784620                    
V 27  -6404.253272  -7713.381648 -29799.246115      0.112846                    
P 28  11080.340802  12111.006234  21352.644053    374.895102                    
V 28 -24765.235478   7784.411901   8871.863511     -0.002957                    
P 29   5601.619631 -14507.594670 -21573.019337   -495.753424                    
V 29  20207.616718  18246.814199  -7095.301751     -0.044579                    
P 30    532.664007  25592.475531   6658.680196   -520.661864                    
V 30  -5000.466022   7708.731068 -29798.117831     -0.019269                    
P 31  -8412.822384 -18957.653285 -16446.844441   -170.605257                    
V 31   5850.455933 -20132.850032  20830.231918     -0.016838                    
P 32 -14892.491755 -20124.136131   9286.744280    -92.240098                    
V 32  10568.130989   5250.079719  28567.907577     -0.076299                    
EOF
